IRIDIUM 150             
1 43257U 18030J   25283.58615057 -.00000002  00000+0 -78626-5 0  9997
2 43257  86.4000  34.7926 0001951  89.4551 270.6868 14.34218566394384
IRIDIUM 143             
1 43258U 18030K   25284.05549816  .00000388  00000+0  13130-3 0  9992
2 43258  86.4004  34.6791 0001963  83.8749 276.2670 14.34221046394388
IRIDIUM 161             
1 43478U 18047C   25284.13263949  .00000493  00000+0  14060-3 0  9993
2 43478  86.4562 192.5075 0002319  85.5462 274.6004 14.43279680389213
IRIDIUM 152             
1 43479U 18047D   25284.16775773  .00000578  00000+0  19941-3 0  9997
2 43479  86.4033 192.3536 0002291  84.9212 275.2246 14.34217978386799
IRIDIUM 147             
1 43480U 18047E   25284.17409935  .00000179  00000+0  56881-4 0  9996
2 43480  86.4037 192.3518 0002149  86.0253 274.1188 14.34217431386792
IRIDIUM 110             
1 43481U 18047F   25284.11067296  .00000208  00000+0  67146-4 0  9990
2 43481  86.4041 192.4635 0002379  94.4831 265.6636 14.34219561386776
IRIDIUM 162             
1 43482U 18047G   25284.19566235  .00000523  00000+0  14950-3 0  9990
2 43482  86.4558 192.3753 0002481  84.2912 275.8572 14.43281593389219
IRIDIUM 160             
1 43569U 18061A   25284.19604851  .00000310  00000+0  10366-3 0  9990
2 43569  86.4018 160.8732 0002095  90.8425 269.3010 14.34219270377682
